#aV2019 11  4  0  0  0.00000000     288 DD+AD WGS84 FIT  NGA
## 2078  86400.00000000   300.00000000 58791 0.0000000000000
+   32     1  2  3  4  5  6  7  8  9 10 11 12 13 14 15 16 17
+         18 19 20 21 22 23 24 25 26 27 28 29 30 31 32  0  0
+          0  0  0  0  0  0  0  0  0  0  0  0  0  0  0  0  0
+          0  0  0  0  0  0  0  0  0  0  0  0  0  0  0  0  0
+          0  0  0  0  0  0  0  0  0  0  0  0  0  0  0  0  0
++         2  2  2  2  2  2  2  2  2  2  2  2  2  2  2  2  2
++         2  2  2  2  2  2  2  2  2  2  2  2  2  2  2  0  0
++         0  0  0  0  0  0  0  0  0  0  0  0  0  0  0  0  0
++         0  0  0  0  0  0  0  0  0  0  0  0  0  0  0  0  0
++         0  0  0  0  0  0  0  0  0  0  0  0  0  0  0  0  0
%c cc cc ccc ccc cccc cccc cccc cccc ccccc ccccc ccccc ccccc
%c cc cc ccc ccc cccc cccc cccc cccc ccccc ccccc ccccc ccccc
%f  0.0000000  0.000000000  0.00000000000  0.000000000000000
%f  0.0000000  0.000000000  0.00000000000  0.000000000000000
%i    0    0    0    0      0      0      0      0         0
%i    0    0    0    0      0      0      0      0         0
/*      NGA, ST. LOUIS,MO.                                  
/*   EPHEMERIS COMPUTED FROM 2 DAYS OF DATA                 
/*   EPOCHA v5 SMOOTHER                                     
/*   G1762 IERS2010 SATAF SATAPC                            
*  2019 11  4  0 35  0.00000000
P  1 -18575.381933 -14050.516818 -13259.283163   -185.357419                    
V  1  16217.237360   2607.764299 -25571.771507     -0.128668                    
P  2  -3498.752485  15204.529352  22115.953764   -339.562656                    
V  2 -26164.953100  -4935.346935   -891.240290     -0.077390                    
P  3 -13384.282820 -20389.344337  10563.800967    -31.442638                    
V  3  -1410.720160 -13596.008924 -27785.644878     -0.054673                    
P  4 -21319.119411   6597.590188  14371.408876     -5.454035                    
V  4  11614.190468 -14221.039222  23842.601238     -0.036667                    
P  5   2192.209074  25193.946065   7642.040538     -3.036320                    
V  5  -5969.623336  -8558.400401  29595.633160     -0.004363                    
P  6 -18019.099606   7923.471172  17889.155326   -112.331241                    
V  6 -21578.262189  -6760.682476 -18761.365622     -0.122724                    
P  7 -26100.542016  -5961.610216  -1361.352762   -141.217464                    
V  7  -1302.121951  -3049.416671  31245.979330     -0.081206                    
P  8  -1720.559833 -17722.673479 -19599.987510    -12.168393                    
V  8  18074.582255 -17326.838234  14266.020719     -0.012303                    
P  9 -18486.615937   -119.439205  19019.850210    -74.200504                    
V  9  15600.076312 -18671.423317  14996.267934     -0.098819                    
P 10  13479.714453  -7383.059218 -21578.602211   -120.626455                    
V 10   8016.967474  26376.973150  -4222.923829     -0.150250                    
P 11 -15747.586690 -11355.950616 -18513.351351   -458.565313                    
V 11  21839.683476  -6822.995960 -15117.287284      0.111850                    
P 12   9304.192446  24133.577071   6186.564798    187.215070                    
V 12   -299.797852   8325.271425 -30793.306536     -0.039369                    
P 13  -8198.716763  20101.914714 -15372.696984    -34.972007                    
V 13 -16247.871507  10614.185573  22790.871618      0.022733                    
P 14  17602.807244 -19368.205208   4222.945018    -52.487593                    
V 14   5660.101698  -1111.914922 -31267.315002      0.021202                    
P 15   4894.848218  17425.310664 -19611.201188   -275.178428                    
V 15 -16583.135313  18134.117661  12547.388181      0.027001                    
P 16   1837.583700 -24418.277279   9520.933416    -89.680127                    
V 16   4639.927743  11819.130888  29267.913718     -0.037023                    
P 17 -21357.121922  14446.156935  -5770.396993    156.445973                    
V 17   4351.938282  -6900.452087 -31195.827764      0.070579                    
P 18 -10702.764441 -15796.597923 -19020.437452     97.718370                    
V 18  22903.373126   3195.289306 -15875.977307      0.026170                    
P 19 -20144.146972  17310.636756    472.820987   -244.633796                    
V 19  -2096.178720  -1009.204088 -32206.404481      0.052192                    
P 20  17431.087507   3090.235281 -19953.524467    527.376251                    
V 20   8723.709607  23642.970871  11149.271707      0.000962                    
P 21  25929.804698   1901.564267  -4070.925850    -91.732806                    
V 21   5458.968827   4441.232717  31094.272274      0.060367                    
P 22 -11400.320438 -23859.027301   3228.512873   -769.130246                    
V 22   2128.460503  -4890.590012 -30599.157595     -0.027862                    
P 23 -12113.718273 -10102.525604  21722.441878   -157.622458                    
V 23  18345.710483 -19576.235769    758.130310      0.022247                    
P 24  17088.445185  14383.046311 -14804.748489     -4.409555                    
V 24 -18522.552524  -1268.757115 -22524.738576     -0.005818                    
P 25  15785.232328  12685.466387  17107.022926    -16.679416                    
V 25   4486.286165  21611.556036 -19664.342803     -0.005661                    
P 26   7162.603040 -18671.086725  17365.811365     76.373533                    
V 26   8580.405810  20564.979481  18749.060433      0.084457                    
P 27   9499.571197 -21524.265364 -12128.173256   -108.697853                    
V 27  12140.396350  -9551.126047  27006.251649     -0.120194                    
P 28 -13077.548963   7602.950676 -21241.775428    756.526774                    
V 28  -5635.091563 -27786.039196  -6187.430796     -0.014470                    
P 29  17173.720349   2443.195976  20089.537436     53.641102                    
V 29 -18399.313702  17680.976202  13532.711098     -0.100543                    
P 30 -23620.572087   2255.853263 -12099.561492    -76.053654                    
V 30 -13987.090713  -6971.042521  25741.537346     -0.083458                    
P 31  16676.442310  -8979.164775  18784.735204     -0.802095                    
V 31  22511.309077   7617.581681 -15878.751227     -0.025372                    
P 32  20697.855518 -15317.350485  -6168.993501    113.476283                    
V 32  -3370.656722   7772.773760 -30438.098011      0.124197                    
EOF
